NORAD_CAT_ID,OBJECT_NAME,OBJECT_TYPE,EPOCH,MEAN_MOTION,ECCENTRICITY,INCLINATION,RA_OF_ASC_NODE,ARG_OF_PERICENTER,MEAN_ANOMALY,BSTAR,MEAN_MOTION_DOT,MEAN_MOTION_DDOT,TLE_LINE0,TLE_LINE1,TLE_LINE2,SEMIMAJOR_AXIS,PERIOD,APOGEE,PERIGEE,DECAYED
50188.0,STARLINK-3275,PAYLOAD,2022-10-02 19:03:04,15.08826524,0.0001624,53.2155,108.0662,60.5463,299.5691,-5.9427e-05,-1.233e-05,0.0,0 STARLINK-3275,1 50188U 21125AJ  22275.79380384 -.00001233  00000-0 -59427-4 0  9995,2 50188  53.2155 108.0662 0001624  60.5463 299.5691 15.08826524 44342,6917.922,95.438,540.91,538.663,0.0
50188.0,STARLINK-3275,PAYLOAD,2022-10-02 20:38:27,15.08826633,0.000165,53.2155,107.7688,59.9912,300.1244,-5.9347e-05,-1.232e-05,0.0,0 STARLINK-3275,1 50188U 21125AJ  22275.86004442 -.00001232  00000-0 -59347-4 0  9991,2 50188  53.2155 107.7688 0001650  59.9912 300.1244 15.08826633 47499,6917.920999999999,95.438,540.928,538.645,0.0
50188.0,STARLINK-3275,PAYLOAD,2022-10-03 12:32:19,15.08836415,0.0001621999999999,53.2164,104.795,61.1165,298.999,8.246e-05,1.024e-05,0.0,0 STARLINK-3275,1 50188U 21125AJ  22276.52244597  .00001024  00000-0  82460-4 0  9991,2 50188  53.2164 104.7950 0001622  61.1165 298.9990 15.08836415 47594,6917.891,95.438,540.878,538.634,0.0
50188.0,STARLINK-3275,PAYLOAD,2022-10-03 18:53:51,15.08841579,0.0001683,53.2157,103.6058,59.952,300.1639,0.00018479,2.654e-05,0.0,0 STARLINK-3275,1 50188U 21125AJ  22276.78740367  .00002654  00000-0  18479-3 0  9993,2 50188  53.2157 103.6058 0001683  59.9520 300.1639 15.08841579 44499,6917.876,95.437,540.905,538.576,0.0
50188.0,STARLINK-3275,PAYLOAD,2022-10-04 06:01:33,15.08851288,0.0001695,53.2158,101.5243,60.8701,299.2461,0.00030946,4.642e-05,0.0,0 STARLINK-3275,1 50188U 21125AJ  22277.25107950  .00004642  00000-0  30946-3 0  9993,2 50188  53.2158 101.5243 0001695  60.8701 299.2461 15.08851288 47704,6917.846,95.437,540.883,538.538,0.0
50188.0,STARLINK-3275,PAYLOAD,2022-10-04 18:44:38,15.08847826,0.0001744,53.2161,99.1457,60.7473,299.3693,0.0003552,5.371e-05,0.0,0 STARLINK-3275,1 50188U 21125AJ  22277.78100203  .00005371  00000-0  35520-3 0  9998,2 50188  53.2161  99.1457 0001744  60.7473 299.3693 15.08847826 47786,6917.856,95.437,540.928,538.515,0.0
50188.0,STARLINK-3275,PAYLOAD,2022-10-04 21:55:24,15.08847899,0.0001764999999999,53.2159,98.5512,59.675,300.4416,0.00033699,5.08e-05,0.0,0 STARLINK-3275,1 50188U 21125AJ  22277.91348250  .00005080  00000-0  33699-3 0  9991,2 50188  53.2159  98.5512 0001765  59.6750 300.4416 15.08847899 44667,6917.856,95.437,540.942,538.5,0.0
50188.0,STARLINK-3275,PAYLOAD,2022-10-05 12:13:52,15.08846194,0.0001795,53.2159,95.8747,59.8453,300.2717,0.00014651,2.045e-05,0.0,0 STARLINK-3275,1 50188U 21125AJ  22278.50964083  .00002045  00000-0  14651-3 0  9990,2 50188  53.2159  95.8747 0001795  59.8453 300.2717 15.08846194 47899,6917.861,95.437,540.9680000000002,538.485,0.0
50188.0,STARLINK-3275,PAYLOAD,2022-10-05 18:35:25,15.08840628,0.0001612,53.2158,94.6849,58.6846,301.4303,-1.8927e-05,-5.89e-06,0.0,0 STARLINK-3275,1 50188U 21125AJ  22278.77460154 -.00000589  00000-0 -18927-4 0  9993,2 50188  53.2158  94.6849 0001612  58.6846 301.4303 15.08840628 44795,6917.878000000002,95.438,540.859,538.628,0.0
50188.0,STARLINK-3275,PAYLOAD,2022-10-06 12:04:39,15.08842247,0.0001294,53.2143,91.4111,52.9117,307.1993,9.3391e-05,1.199e-05,0.0,0 STARLINK-3275,1 50188U 21125AJ  22279.50324053  .00001199  00000-0  93391-4 0  9996,2 50188  53.2143  91.4111 0001294  52.9117 307.1993 15.08842247 48049,6917.874,95.437,540.634,538.8430000000002,0.0
50188.0,STARLINK-3275,PAYLOAD,2022-10-06 18:26:12,15.08839349,0.0001666999999999,53.2171,90.2237,55.8765,304.2385,-4.2189e-05,-9.59e-06,0.0,0 STARLINK-3275,1 50188U 21125AJ  22279.76819859 -.00000959  00000-0 -42189-4 0  9991,2 50188  53.2171  90.2237 0001667  55.8765 304.2385 15.08839349 48087,6917.882,95.438,540.901,538.594,0.0
50188.0,STARLINK-3275,PAYLOAD,2022-10-07 03:58:31,15.08842353,0.0001769,53.217,88.4405,58.1717,301.9447,7.8354e-05,9.59e-06,0.0,0 STARLINK-3275,1 50188U 21125AJ  22280.16563766  .00000959  00000-0  78354-4 0  9991,2 50188  53.2170  88.4405 0001769  58.1717 301.9447 15.08842353 45009,6917.873000000001,95.437,540.962,538.514,0.0
50188.0,STARLINK-3275,PAYLOAD,2022-10-07 10:20:03,15.08844584,0.0001715,53.2161,87.2494,52.508,307.6067,0.00011692,1.573e-05,0.0,0 STARLINK-3275,1 50188U 21125AJ  22280.43059690  .00001573  00000-0  11692-3 0  9991,2 50188  53.2161  87.2494 0001715  52.5080 307.6067 15.08844584 48187,6917.866,95.437,540.918,538.545,0.0
50188.0,STARLINK-3275,PAYLOAD,2022-10-07 19:52:22,15.08842336,0.0001472,53.2164,85.46700000000001,54.4947,305.6182,3.346e-05,2.45e-06,0.0,0 STARLINK-3275,1 50188U 21125AJ  22280.82803907  .00000245  00000-0  33460-4 0  9995,2 50188  53.2164  85.4670 0001472  54.4947 305.6182 15.08842336 48245,6917.873000000001,95.437,540.757,538.72,0.0
50188.0,STARLINK-3275,PAYLOAD,2022-10-08 11:46:14,15.08841687,0.0001571,53.2166,82.4914,49.7272,310.3857,2.2854e-05,7.6e-07,0.0,0 STARLINK-3275,1 50188U 21125AJ  22281.49044010  .00000076  00000-0  22854-4 0  9998,2 50188  53.2166  82.4914 0001571  49.7272 310.3857 15.08841687 45206,6917.875,95.437,540.827,538.653,0.0
50188.0,STARLINK-3275,PAYLOAD,2022-10-08 18:07:46,15.08846085,0.0001645,53.2165,81.3026,54.8485,305.2661,8.4328e-05,1.055e-05,0.0,0 STARLINK-3275,1 50188U 21125AJ  22281.75539791  .00001055  00000-0  84328-4 0  9994,2 50188  53.2165  81.3026 0001645  54.8485 305.2661 15.08846085 48387,6917.861999999999,95.437,540.865,538.589,0.0
50188.0,STARLINK-3275,PAYLOAD,2022-10-08 22:53:56,15.08838776,0.0001743,53.216,80.4108,50.5507,309.5639,-2.5294e-05,-6.91e-06,0.0,0 STARLINK-3275,1 50188U 21125AJ  22281.95412214 -.00000691  00000-0 -25294-4 0  9990,2 50188  53.2160  80.4108 0001743  50.5507 309.5639 15.08838776 48414,6917.884,95.438,540.955,538.543,0.0
50188.0,STARLINK-3275,PAYLOAD,2022-10-09 17:58:33,15.08852692,0.0001702,53.2162,76.8422,52.0867,308.0279,0.00025008,3.696e-05,0.0,0 STARLINK-3275,1 50188U 21125AJ  22282.74899594  .00003696  00000-0  25008-3 0  9996,2 50188  53.2162  76.8422 0001702  52.0867 308.0279 15.08852692 45396,6917.842,95.437,540.884,538.529,0.0
50188.0,STARLINK-3275,PAYLOAD,2022-10-09 19:33:56,15.08855339,0.0001739,53.2159,76.5447,52.8941,307.221,0.00037156,5.633e-05,0.0,0 STARLINK-3275,1 50188U 21125AJ  22282.81523561  .00005633  00000-0  37156-3 0  9992,2 50188  53.2159  76.5447 0001739  52.8941 307.2210 15.08855339 48544,6917.834,95.437,540.9019999999998,538.495,0.0
50188.0,STARLINK-3275,PAYLOAD,2022-10-10 03:30:52,15.08850728,0.0001754,53.2157,75.0575,50.0938,310.0208,0.00034365,5.187e-05,0.0,0 STARLINK-3275,1 50188U 21125AJ  22283.14643667  .00005187  00000-0  34365-3 0  9992,2 50188  53.2157  75.0575 0001754  50.0938 310.0208 15.08850728 48592,6917.848000000001,95.437,540.9259999999998,538.499,0.0
50188.0,STARLINK-3275,PAYLOAD,2022-10-10 13:03:11,15.08842598,0.0001624,53.2157,73.2728,50.7155,309.3981,9.8141e-05,1.274e-05,0.0,0 STARLINK-3275,1 50188U 21125AJ  22283.54387789  .00001274  00000-0  98141-4 0  9992,2 50188  53.2157  73.2728 0001624  50.7155 309.3981 15.08842598 45510,6917.871999999999,95.437,540.861,538.614,0.0
50188.0,STARLINK-3275,PAYLOAD,2022-10-10 19:24:43,15.088482999999998,0.0001681,53.2162,72.0838,50.8697,309.2445,0.00020549,2.985e-05,0.0,0 STARLINK-3275,1 50188U 21125AJ  22283.80883606  .00002985  00000-0  20549-3 0  9996,2 50188  53.2162  72.0838 0001681  50.8697 309.2445 15.08848300 48693,6917.855,95.437,540.883,538.557,0.0
50188.0,STARLINK-3275,PAYLOAD,2022-10-11 12:53:58,15.08839411,0.0001606,53.2163,68.812,51.4293,308.6843,-4.607100000000001e-05,-1.021e-05,0.0,0 STARLINK-3275,1 50188U 21125AJ  22284.53747923 -.00001021  00000-0 -46071-4 0  9999,2 50188  53.2163  68.8120 0001606  51.4293 308.6843 15.08839411 48808,6917.882,95.438,540.8580000000002,538.636,0.0
50188.0,STARLINK-3275,PAYLOAD,2022-10-11 19:15:31,15.08838055,0.0001783,53.2167,67.6233,47.9826,312.1318,-6.1732e-05,-1.27e-05,0.0,0 STARLINK-3275,1 50188U 21125AJ  22284.80244215 -.00001270  00000-0 -61732-4 0  9992,2 50188  53.2167  67.6233 0001783  47.9826 312.1318 15.08838055 48846,6917.886,95.438,540.985,538.518,0.0
50188.0,STARLINK-3275,PAYLOAD,2022-10-12 12:44:45,15.08835723,0.000176,53.2172,64.3528,49.1849,310.9296,5.3295e-05,5.6e-06,0.0,0 STARLINK-3275,1 50188U 21125AJ  22285.53108503  .00000560  00000-0  53295-4 0  9996,2 50188  53.2172  64.3528 0001760  49.1849 310.9296 15.08835723 48959,6917.893,95.438,540.976,538.5409999999998,0.0
50188.0,STARLINK-3275,PAYLOAD,2022-10-12 20:41:41,15.08841028,0.0001835,53.2172,62.8659,45.2391,314.8751,0.00011775,1.586e-05,0.0,0 STARLINK-3275,1 50188U 21125AJ  22285.86228339  .00001586  00000-0  11775-3 0  9997,2 50188  53.2172  62.8659 0001835  45.2391 314.8751 15.08841028 49000,6917.877,95.437,541.012,538.4730000000002,0.0
50188.0,STARLINK-3275,PAYLOAD,2022-10-13 12:35:32,15.08840612,0.0001784,53.2176,59.893,45.4765,314.6373,0.00015402,2.164e-05,0.0,0 STARLINK-3275,1 50188U 21125AJ  22286.52468391  .00002164  00000-0  15402-3 0  9999,2 50188  53.2176  59.8930 0001784  45.4765 314.6373 15.08840612 49109,6917.879,95.438,540.9780000000002,538.509,0.0
50188.0,STARLINK-3275,PAYLOAD,2022-10-13 15:46:19,15.08829476,0.0001902,53.2175,59.2985,45.1922,314.9224,1.4319e-05,-6e-07,0.0,0 STARLINK-3275,1 50188U 21125AJ  22286.65717264 -.00000060  00000-0  14319-4 0  9990,2 50188  53.2175  59.2985 0001902  45.1922 314.9224 15.08829476 45981,6917.913000000001,95.438,541.0930000000002,538.462,0.0
50188.0,STARLINK-3275,PAYLOAD,2022-10-13 18:57:06,15.08831172,0.0001861,53.218,58.70399999999999,45.3552,314.7592,9.3855e-05,1.206e-05,0.0,0 STARLINK-3275,1 50188U 21125AJ  22286.78965280  .00001206  00000-0  93855-4 0  9991,2 50188  53.2180  58.7040 0001861  45.3552 314.7592 15.08831172 49142,6917.906999999997,95.438,541.06,538.485,0.0
